NORAD_CAT_ID,OBJECT_NAME,OBJECT_TYPE,EPOCH,MEAN_MOTION,ECCENTRICITY,INCLINATION,RA_OF_ASC_NODE,ARG_OF_PERICENTER,MEAN_ANOMALY,BSTAR,MEAN_MOTION_DOT,MEAN_MOTION_DDOT,TLE_LINE0,TLE_LINE1,TLE_LINE2,SEMIMAJOR_AXIS,PERIOD,APOGEE,PERIGEE,DECAYED
53978.0,STARLINK-5148,PAYLOAD,2022-10-26 20:00:01,15.73246902,0.000248,53.2177,348.3237,12.0142,235.6162,-0.00059759,-0.00083841,0.0,0 STARLINK-5148,1 53978U 22125Q   22299.83334491 -.00083841  00000-0 -59759-3 0  9997,2 53978  53.2177 348.3237 0002480  12.0142 235.6162 15.73246902  3673,6727.761,91.53,351.295,347.958,0.0
53978.0,STARLINK-5148,PAYLOAD,2022-10-26 22:00:00,15.73223398,0.0002394,53.2178,347.9109,11.7635,348.1124,-0.00036644,-0.00051792,0.0,0 STARLINK-5148,1 53978U 22125Q   22299.91667824 -.00051792  00000-0 -36644-3 0  9993,2 53978  53.2178 347.9109 0002394  11.7635 348.1124 15.73223398  1304,6727.828,91.532,351.30400000000014,348.083,0.0
53978.0,STARLINK-5148,PAYLOAD,2022-10-27 04:00:00,15.73211456,0.0002387,53.2179,346.6736,13.735,322.8444,-0.00041882,-0.00059027,0.0,0 STARLINK-5148,1 53978U 22125Q   22300.16667824 -.00059027  00000-0 -41882-3 0  9992,2 53978  53.2179 346.6736 0002387  13.7350 322.8444 15.73211456  3729,6727.863,91.533,351.333,348.122,0.0
53978.0,STARLINK-5148,PAYLOAD,2022-10-27 14:00:01,15.73141942,0.0002759,53.2176,344.6138,15.2765,162.5229,0.00079392,0.0011202999999999,0.0,0 STARLINK-5148,1 53978U 22125Q   22300.58335648  .00112030  00000-0  79392-3 0  9993,2 53978  53.2176 344.6138 0002759  15.2765 162.5229 15.73141942  3799,6728.061,91.537,351.782,348.069,0.0
53978.0,STARLINK-5148,PAYLOAD,2022-10-27 22:00:00,15.73200859,0.0002628999999999,53.218,342.9623,18.4734,248.1729,0.00054335,0.00076341,0.0,0 STARLINK-5148,1 53978U 22125Q   22300.91667824  .00076341  00000-0  54335-3 0  9998,2 53978  53.2180 342.9623 0002629  18.4734 248.1729 15.73200859  1305,6727.893,91.533,351.526,347.98900000000015,0.0
53978.0,STARLINK-5148,PAYLOAD,2022-10-28 04:00:00,15.73280689,0.0002658,53.2181,341.725,23.2534,220.1039,-0.00047075,-0.0006641,0.0,0 STARLINK-5148,1 53978U 22125Q   22301.16667824 -.00066410  00000-0 -47075-3 0  9997,2 53978  53.2181 341.7250 0002658  23.2534 220.1039 15.73280689  3881,6727.665,91.528,351.3180000000001,347.742,0.0
53978.0,STARLINK-5148,PAYLOAD,2022-10-28 14:00:01,15.73179019,0.0002965,53.2177,339.6648,21.06900000000001,63.6001,0.00045416,0.00063553,0.0,0 STARLINK-5148,1 53978U 22125Q   22301.58335648  .00063553  00000-0  45416-3 0  9999,2 53978  53.2177 339.6648 0002965  21.0690  63.6001 15.73179019  1301,6727.955,91.534,351.815,347.825,0.0
53978.0,STARLINK-5148,PAYLOAD,2022-10-28 20:00:01,15.73239478,0.0002773999999999,53.2177,338.4262,20.5687,40.7235,-0.0004035,-0.00056976,0.0,0 STARLINK-5148,1 53978U 22125Q   22301.83334491 -.00056976  00000-0 -40350-3 0  9997,2 53978  53.2177 338.4262 0002774  20.5687  40.7235 15.73239478  3996,6727.783,91.531,351.514,347.781,0.0
53978.0,STARLINK-5148,PAYLOAD,2022-10-28 22:00:01,15.73225155,0.0002716,53.2176,338.0133,20.8924,152.7095,-0.00030509,-0.00043274,0.0,0 STARLINK-5148,1 53978U 22125Q   22301.91668981 -.00043274  00000-0 -30509-3 0  9992,2 53978  53.2176 338.0133 0002716  20.8924 152.7095 15.73225155  1309,6727.823,91.532,351.516,347.861,0.0
53978.0,STARLINK-5148,PAYLOAD,2022-10-29 04:00:00,15.73217384,0.0002735,53.2177,336.7764,23.7011,126.5553,-0.00025967,-0.0003694,0.0,0 STARLINK-5148,1 53978U 22125Q   22302.16667824 -.00036940  00000-0 -25967-3 0  9999,2 53978  53.2177 336.7764 0002735  23.7011 126.5553 15.73217384  4042,6727.846,91.532,351.551,347.871,0.0
53978.0,STARLINK-5148,PAYLOAD,2022-10-29 12:00:00,15.73196366,0.0003015,53.2178,335.1288,22.9166,216.2794,0.0004364,0.00061072,0.0,0 STARLINK-5148,1 53978U 22125Q   22302.50001157  .00061072  00000-0  43640-3 0  9998,2 53978  53.2178 335.1288 0003015  22.9166 216.2794 15.73196366  1307,6727.906,91.533,351.7990000000001,347.742,0.0
53978.0,STARLINK-5148,PAYLOAD,2022-10-29 22:00:01,15.73235532,0.0002675,53.218,333.0598,18.7373,61.7227,-0.00011549,-0.00016826,0.0,0 STARLINK-5148,1 53978U 22125Q   22302.91668981 -.00016826  00000-0 -11549-3 0  9999,2 53978  53.2180 333.0598 0002675  18.7373  61.7227 15.73235532  1308,6727.794,91.531,351.459,347.8590000000001,0.0
53978.0,STARLINK-5148,PAYLOAD,2022-10-30 00:00:00,15.73465264,0.0002234,53.2175,332.6457,17.0832,175.5021,-0.0044786,-0.00593627,0.0,0 STARLINK-5148,1 53978U 22125Q   22303.00001157 -.00593627  00000-0 -44786-2 0  9993,2 53978  53.2175 332.6457 0002234  17.0832 175.5021 15.73465264  4175,6727.139,91.518,350.50699999999995,347.501,0.0
53978.0,STARLINK-5148,PAYLOAD,2022-10-30 14:00:01,15.72897749,0.0003642,53.2171,329.7547,290.4407,327.4938,-0.0089918,-0.01115077,0.0,0 STARLINK-5148,1 53978U 22125Q   22303.58334491 -.01115077  00000-0 -89918-2 0  9992,2 53978  53.2171 329.7547 0003642 290.4407 327.4938 15.72897749  1300,6728.757,91.551,353.0730000000001,348.171,0.0
53978.0,STARLINK-5148,PAYLOAD,2022-10-30 22:00:01,15.72091752,0.000584,53.2174,328.1053,274.1282,71.9429,-0.009394,-0.01125605,0.0,0 STARLINK-5148,1 53978U 22125Q   22303.91668981 -.01125605  00000-0 -93940-2 0  9991,2 53978  53.2174 328.1053 0005840 274.1282  71.9429 15.72091752  1306,6731.057,91.598,356.853,348.991,0.0
53978.0,STARLINK-5148,PAYLOAD,2022-10-31 14:00:01,15.70465518,0.000103,53.2171,324.8176,54.8261,104.3924,-0.010091,-0.01125382,0.0,0 STARLINK-5148,1 53978U 22125Q   22304.58334491 -.01125382  00000-0 -10091-1 0  9998,2 53978  53.2171 324.8176 0001030  54.8261 104.3924 15.70465518  1303,6735.703,91.693,358.261,356.874,0.0
53978.0,STARLINK-5148,PAYLOAD,2022-10-31 20:00:01,15.69850718,0.000118,53.2175,323.5834,65.0027,68.2315,-0.010283,-0.01118414,0.0,0 STARLINK-5148,1 53978U 22125Q   22304.83335648 -.01118414  00000-0 -10283-1 0  9992,2 53978  53.2175 323.5834 0001180  65.0027  68.2315 15.69850718  4464,6737.4609999999975,91.728,360.121,358.531,0.0
53978.0,STARLINK-5148,PAYLOAD,2022-10-31 22:00:01,15.69647323,0.0001133,53.2173,323.1726,74.6055,169.8221,-0.010371,-0.01118391,0.0,0 STARLINK-5148,1 53978U 22125Q   22304.91668981 -.01118391  00000-0 -10371-1 0  9992,2 53978  53.2173 323.1726 0001133  74.6055 169.8221 15.69647323  1303,6738.043000000002,91.74,360.672,359.145,0.0
53978.0,STARLINK-5148,PAYLOAD,2022-11-01 12:00:00,15.68010375,0.0001100999999999,53.2175,320.3075,86.5082,214.6056,-0.0081308,-0.00831474,0.0,0 STARLINK-5148,1 53978U 22125Q   22305.50001157 -.00831474  00000-0 -81308-2 0  9996,2 53978  53.2175 320.3075 0001101  86.5082 214.6056 15.68010375  4564,6742.732,91.836,365.339,363.854,0.0
53978.0,STARLINK-5148,PAYLOAD,2022-11-01 14:00:01,15.67972019,0.0001114,53.2172,319.8975,74.5731,337.1558,-0.010383,-0.01051853,0.0,0 STARLINK-5148,1 53978U 22125Q   22305.58334491 -.01051853  00000-0 -10383-1 0  9994,2 53978  53.2172 319.8975 0001114  74.5731 337.1558 15.67972019  1303,6742.842,91.838,365.458,363.956,0.0
53978.0,STARLINK-5148,PAYLOAD,2022-11-01 20:00:01,15.67411672,9.68e-05,53.2176,318.6681,78.9538,304.5009,-0.011398,-0.01138457,0.0,0 STARLINK-5148,1 53978U 22125Q   22305.83334491 -.01138457  00000-0 -11398-1 0  9995,2 53978  53.2176 318.6681 0000968  78.9538 304.5009 15.67411672  4616,6744.449000000001,91.871,366.967,365.661,0.0
53978.0,STARLINK-5148,PAYLOAD,2022-11-01 22:00:00,15.67207083,0.0001144,53.2174,318.2589,76.7411,57.1741,-0.0114849999999999,-0.01137715,0.0,0 STARLINK-5148,1 53978U 22125Q   22305.91667824 -.01137715  00000-0 -11485-1 0  9996,2 53978  53.2174 318.2589 0001144  76.7411  57.1741 15.67207083  1306,6745.036,91.883,367.672,366.129,0.0
53978.0,STARLINK-5148,PAYLOAD,2022-11-02 12:00:00,15.65778891,0.0001225,53.2173,315.4032,73.8821,111.5414,-0.012075,-0.01129511,0.0,0 STARLINK-5148,1 53978U 22125Q   22306.50001157 -.01129511  00000-0 -12075-1 0  9994,2 53978  53.2173 315.4032 0001225  73.8821 111.5414 15.65778891  4729,6749.137,91.967,371.828,370.175,0.0
53978.0,STARLINK-5148,PAYLOAD,2022-11-02 14:00:01,15.65581043,0.0001053,53.2172,314.9948,79.7851,215.6077,-0.01228,-0.01138548,0.0,0 STARLINK-5148,1 53978U 22125Q   22306.58334491 -.01138548  00000-0 -12280-1 0  9990,2 53978  53.2172 314.9948 0001053  79.7851 215.6077 15.65581043  1308,6749.705,91.979,372.281,370.859,0.0
53978.0,STARLINK-5148,PAYLOAD,2022-11-02 22:00:00,15.64747158,0.0001011,53.2172,313.3652,93.9551,280.7194,-0.012365,-0.01111336,0.0,0 STARLINK-5148,1 53978U 22125Q   22306.91667824 -.01111336  00000-0 -12365-1 0  9996,2 53978  53.2172 313.3652 0001011  93.9551 280.7194 15.64747158  1305,6752.103,92.028,374.651,373.285,0.0
53978.0,STARLINK-5148,PAYLOAD,2022-11-03 04:00:00,15.64103139,0.0001396999999999,53.2173,312.1435,126.8831,216.623,-0.01213,-0.01050622,0.0,0 STARLINK-5148,1 53978U 22125Q   22307.16667824 -.01050622  00000-0 -12130-1 0  9994,2 53978  53.2173 312.1435 0001397 126.8831 216.6230 15.64103139  4820,6753.956,92.066,376.765,374.878,0.0
53978.0,STARLINK-5148,PAYLOAD,2022-11-03 14:00:01,15.63135376,0.0001199,53.217,310.1116,90.2211,80.0584,-0.0134479999999999,-0.01131557,0.0,0 STARLINK-5148,1 53978U 22125Q   22307.58334491 -.01131557  00000-0 -13448-1 0  9991,2 53978  53.2170 310.1116 0001199  90.2211  80.0584 15.63135376  4896,6756.744000000002,92.123,379.419,377.799,0.0
53978.0,STARLINK-5148,PAYLOAD,2022-11-03 22:00:00,15.62288655,0.0001082,53.2175,308.4858,89.4502,157.1843,-0.013268,-0.01084392,0.0,0 STARLINK-5148,1 53978U 22125Q   22307.91667824 -.01084392  00000-0 -13268-1 0  9991,2 53978  53.2175 308.4858 0001082  89.4502 157.1843 15.62288655  1303,6759.185,92.172,381.781,380.318,0.0
53978.0,STARLINK-5148,PAYLOAD,2022-11-04 06:00:00,15.61510042,0.000107,53.2175,306.8646,83.3122,238.6677,-0.014366,-0.01133772,0.0,0 STARLINK-5148,1 53978U 22125Q   22308.25001157 -.01133772  00000-0 -14366-1 0  9997,2 53978  53.2175 306.8646 0001070  83.3122 238.6677 15.61510042  4993,6761.432,92.218,384.02,382.573,0.0
